[{"OBJECT_NAME":"STARLINK-36296","OBJECT_ID":"2026-063A","EPOCH":"2026-04-24T12:03:12.696192","MEAN_MOTION":15.75629712,"ECCENTRICITY":0.00012256,"INCLINATION":97.2854,"RA_OF_ASC_NODE":256.7071,"ARG_OF_PERICENTER":59.0405,"MEAN_ANOMALY":301.0981,"EPHEMERIS_TYPE":0,"CLASSIFICATION_TYPE":"U","NORAD_CAT_ID":68380,"ELEMENT_SET_NO":999,"REV_AT_EPOCH":486,"BSTAR":0.0015163447,"MEAN_MOTION_DOT":0.00236896,"MEAN_MOTION_DDOT":0},{"OBJECT_NAME":"STARLINK-37111","OBJECT_ID":"2026-063B","EPOCH":"2026-04-24T09:05:40.269984","MEAN_MOTION":15.75231973,"ECCENTRICITY":9.023e-5,"INCLINATION":97.2857,"RA_OF_ASC_NODE":256.4115,"ARG_OF_PERICENTER":71.0203,"MEAN_ANOMALY":289.116,"EPHEMERIS_TYPE":0,"CLASSIFICATION_TYPE":"U","NORAD_CAT_ID":68381,"ELEMENT_SET_NO":999,"REV_AT_EPOCH":483,"BSTAR":0.0010235335,"MEAN_MOTION_DOT":0.00155631,"MEAN_MOTION_DDOT":0},{"OBJECT_NAME":"STARLINK-36946","OBJECT_ID":"2026-063C","EPOCH":"2026-04-24T17:27:59.401440","MEAN_MOTION":15.80895605,"ECCENTRICITY":0.00012518,"INCLINATION":97.2839,"RA_OF_ASC_NODE":256.8539,"ARG_OF_PERICENTER":127.0994,"MEAN_ANOMALY":233.0389,"EPHEMERIS_TYPE":0,"CLASSIFICATION_TYPE":"U","NORAD_CAT_ID":68382,"ELEMENT_SET_NO":999,"REV_AT_EPOCH":489,"BSTAR":0.00089148894,"MEAN_MOTION_DOT":0.00174716,"MEAN_MOTION_DDOT":0},{"OBJECT_NAME":"STARLINK-37121","OBJECT_ID":"2026-063D","EPOCH":"2026-04-24T10:43:14.832480","MEAN_MOTION":15.75250268,"ECCENTRICITY":0.00012861,"INCLINATION":97.2855,"RA_OF_ASC_NODE":256.4719,"ARG_OF_PERICENTER":55.3777,"MEAN_ANOMALY":304.7609,"EPHEMERIS_TYPE":0,"CLASSIFICATION_TYPE":"U","NORAD_CAT_ID":68383,"ELEMENT_SET_NO":999,"REV_AT_EPOCH":484,"BSTAR":0.0012596086,"MEAN_MOTION_DOT":0.00192546,"MEAN_MOTION_DDOT":0},{"OBJECT_NAME":"STARLINK-37137","OBJECT_ID":"2026-063E","EPOCH":"2026-04-24T17:18:08.089344","MEAN_MOTION":15.75300846,"ECCENTRICITY":0.00013984,"INCLINATION":97.2846,"RA_OF_ASC_NODE":256.7097,"ARG_OF_PERICENTER":47.1118,"MEAN_ANOMALY":313.0264,"EPHEMERIS_TYPE":0,"CLASSIFICATION_TYPE":"U","NORAD_CAT_ID":68384,"ELEMENT_SET_NO":999,"REV_AT_EPOCH":488,"BSTAR":0.0022497231,"MEAN_MOTION_DOT":0.00351292,"MEAN_MOTION_DDOT":0},{"OBJECT_NAME":"STARLINK-37128","OBJECT_ID":"2026-063F","EPOCH":"2026-04-25T00:00:02.999808","MEAN_MOTION":15.75218929,"ECCENTRICITY":0.00011296,"INCLINATION":97.2846,"RA_OF_ASC_NODE":257.1038,"ARG_OF_PERICENTER":86.4612,"MEAN_ANOMALY":289.3267,"EPHEMERIS_TYPE":0,"CLASSIFICATION_TYPE":"U","NORAD_CAT_ID":68385,"ELEMENT_SET_NO":999,"REV_AT_EPOCH":586,"BSTAR":-0.00064506721,"MEAN_MOTION_DOT":-0.00095396,"MEAN_MOTION_DDOT":0},{"OBJECT_NAME":"STARLINK-37198","OBJECT_ID":"2026-063G","EPOCH":"2026-04-24T09:17:52.002816","MEAN_MOTION":15.75225973,"ECCENTRICITY":0.00012974,"INCLINATION":97.2848,"RA_OF_ASC_NODE":256.3984,"ARG_OF_PERICENTER":350.2407,"MEAN_ANOMALY":9.8833,"EPHEMERIS_TYPE":0,"CLASSIFICATION_TYPE":"U","NORAD_CAT_ID":68386,"ELEMENT_SET_NO":999,"REV_AT_EPOCH":483,"BSTAR":0.0010838473,"MEAN_MOTION_DOT":0.00164949,"MEAN_MOTION_DDOT":0},{"OBJECT_NAME":"STARLINK-37223","OBJECT_ID":"2026-063H","EPOCH":"2026-04-25T00:00:02.999808","MEAN_MOTION":15.75227507,"ECCENTRICITY":0.00014233,"INCLINATION":97.2846,"RA_OF_ASC_NODE":257.1076,"ARG_OF_PERICENTER":107.0239,"MEAN_ANOMALY":280.7615,"EPHEMERIS_TYPE":0,"CLASSIFICATION_TYPE":"U","NORAD_CAT_ID":68387,"ELEMENT_SET_NO":999,"REV_AT_EPOCH":591,"BSTAR":-0.00093707514,"MEAN_MOTION_DOT":-0.00137895,"MEAN_MOTION_DDOT":0},{"OBJECT_NAME":"STARLINK-37203","OBJECT_ID":"2026-063J","EPOCH":"2026-04-25T06:00:02.000160","MEAN_MOTION":15.7521938,"ECCENTRICITY":0.0001095,"INCLINATION":97.2836,"RA_OF_ASC_NODE":257.4052,"ARG_OF_PERICENTER":70.8917,"MEAN_ANOMALY":13.5117,"EPHEMERIS_TYPE":0,"CLASSIFICATION_TYPE":"U","NORAD_CAT_ID":68388,"ELEMENT_SET_NO":999,"REV_AT_EPOCH":595,"BSTAR":-0.00051425319,"MEAN_MOTION_DOT":-0.00076248,"MEAN_MOTION_DDOT":0},{"OBJECT_NAME":"STARLINK-37197","OBJECT_ID":"2026-063K","EPOCH":"2026-04-24T11:03:03.929760","MEAN_MOTION":15.75247029,"ECCENTRICITY":0.00015582,"INCLINATION":97.2849,"RA_OF_ASC_NODE":256.4511,"ARG_OF_PERICENTER":26.8895,"MEAN_ANOMALY":333.2451,"EPHEMERIS_TYPE":0,"CLASSIFICATION_TYPE":"U","NORAD_CAT_ID":68389,"ELEMENT_SET_NO":999,"REV_AT_EPOCH":484,"BSTAR":0.0012516279,"MEAN_MOTION_DOT":0.00191271,"MEAN_MOTION_DDOT":0},{"OBJECT_NAME":"STARLINK-37193","OBJECT_ID":"2026-063L","EPOCH":"2026-04-24T08:11:33.132480","MEAN_MOTION":15.75575287,"ECCENTRICITY":0.00010937,"INCLINATION":97.2858,"RA_OF_ASC_NODE":256.6138,"ARG_OF_PERICENTER":73.9055,"MEAN_ANOMALY":286.2331,"EPHEMERIS_TYPE":0,"CLASSIFICATION_TYPE":"U","NORAD_CAT_ID":68390,"ELEMENT_SET_NO":999,"REV_AT_EPOCH":484,"BSTAR":0.0013791039,"MEAN_MOTION_DOT":0.00214364,"MEAN_MOTION_DDOT":0},{"OBJECT_NAME":"STARLINK-37216","OBJECT_ID":"2026-063M","EPOCH":"2026-04-24T18:03:21.978144","MEAN_MOTION":15.75234204,"ECCENTRICITY":0.00014067,"INCLINATION":97.2856,"RA_OF_ASC_NODE":256.8221,"ARG_OF_PERICENTER":56.5546,"MEAN_ANOMALY":303.5854,"EPHEMERIS_TYPE":0,"CLASSIFICATION_TYPE":"U","NORAD_CAT_ID":68391,"ELEMENT_SET_NO":999,"REV_AT_EPOCH":489,"BSTAR":0.00090168023,"MEAN_MOTION_DOT":0.00136798,"MEAN_MOTION_DDOT":0},{"OBJECT_NAME":"STARLINK-37215","OBJECT_ID":"2026-063N","EPOCH":"2026-04-24T11:47:17.208960","MEAN_MOTION":15.75235638,"ECCENTRICITY":0.00013029,"INCLINATION":97.2837,"RA_OF_ASC_NODE":256.5628,"ARG_OF_PERICENTER":113.0452,"MEAN_ANOMALY":247.0951,"EPHEMERIS_TYPE":0,"CLASSIFICATION_TYPE":"U","NORAD_CAT_ID":68392,"ELEMENT_SET_NO":999,"REV_AT_EPOCH":485,"BSTAR":0.0010400596,"MEAN_MOTION_DOT":0.0015822,"MEAN_MOTION_DDOT":0},{"OBJECT_NAME":"STARLINK-37184","OBJECT_ID":"2026-063P","EPOCH":"2026-04-25T06:00:02.000160","MEAN_MOTION":15.75193663,"ECCENTRICITY":0.00015534,"INCLINATION":97.2837,"RA_OF_ASC_NODE":257.3916,"ARG_OF_PERICENTER":80.5362,"MEAN_ANOMALY":331.8908,"EPHEMERIS_TYPE":0,"CLASSIFICATION_TYPE":"U","NORAD_CAT_ID":68393,"ELEMENT_SET_NO":999,"REV_AT_EPOCH":595,"BSTAR":-0.00028522946,"MEAN_MOTION_DOT":-0.0004247,"MEAN_MOTION_DDOT":0},{"OBJECT_NAME":"STARLINK-37157","OBJECT_ID":"2026-063Q","EPOCH":"2026-04-24T09:20:24.260352","MEAN_MOTION":15.75217279,"ECCENTRICITY":0.00019541,"INCLINATION":97.2856,"RA_OF_ASC_NODE":256.3959,"ARG_OF_PERICENTER":359.9536,"MEAN_ANOMALY":0.1728,"EPHEMERIS_TYPE":0,"CLASSIFICATION_TYPE":"U","NORAD_CAT_ID":68394,"ELEMENT_SET_NO":999,"REV_AT_EPOCH":483,"BSTAR":0.0010654713,"MEAN_MOTION_DOT":0.00162038,"MEAN_MOTION_DDOT":0},{"OBJECT_NAME":"STARLINK-37172","OBJECT_ID":"2026-063R","EPOCH":"2026-04-24T09:08:43.004256","MEAN_MOTION":15.7521783,"ECCENTRICITY":0.00012323,"INCLINATION":97.2854,"RA_OF_ASC_NODE":256.4067,"ARG_OF_PERICENTER":60.0126,"MEAN_ANOMALY":300.1262,"EPHEMERIS_TYPE":0,"CLASSIFICATION_TYPE":"U","NORAD_CAT_ID":68395,"ELEMENT_SET_NO":999,"REV_AT_EPOCH":483,"BSTAR":0.0011692416,"MEAN_MOTION_DOT":0.0017817,"MEAN_MOTION_DDOT":0}]
